[{"OBJECT_NAME":"CHUANGXIN 1-04 (CX-1-04)","OBJECT_ID":"2014-051B","EPOCH":"2026-03-09T23:17:42.810432","MEAN_MOTION":14.30385817,"ECCENTRICITY":0.00233905,"INCLINATION":98.7069,"RA_OF_ASC_NODE":70.7142,"ARG_OF_PERICENTER":104.1594,"MEAN_ANOMALY":256.2189,"EPHEMERIS_TYPE":0,"CLASSIFICATION_TYPE":"U","NORAD_CAT_ID":40137,"ELEMENT_SET_NO":999,"REV_AT_EPOCH":60036,"BSTAR":5.5260038e-5,"MEAN_MOTION_DOT":9.9e-7,"MEAN_MOTION_DDOT":0},{"OBJECT_NAME":"FENGYUN 1C DEB","OBJECT_ID":"1999-025EXK","EPOCH":"2026-02-27T21:17:32.077248","MEAN_MOTION":13.51021486,"ECCENTRICITY":0.057041,"INCLINATION":98.9539,"RA_OF_ASC_NODE":94.9098,"ARG_OF_PERICENTER":256.1981,"MEAN_ANOMALY":97.5082,"EPHEMERIS_TYPE":0,"CLASSIFICATION_TYPE":"U","NORAD_CAT_ID":41005,"ELEMENT_SET_NO":999,"REV_AT_EPOCH":53422,"BSTAR":0.0010813,"MEAN_MOTION_DOT":1.912e-5,"MEAN_MOTION_DDOT":0}]
